[{"OBJECT_NAME":"TEVEL2-1","OBJECT_ID":"2025-052H","EPOCH":"2026-03-09T15:32:51.927072","MEAN_MOTION":15.30341923,"ECCENTRICITY":0.0004767,"INCLINATION":97.3991,"RA_OF_ASC_NODE":324.7682,"ARG_OF_PERICENTER":104.8919,"MEAN_ANOMALY":255.2849,"EPHEMERIS_TYPE":0,"CLASSIFICATION_TYPE":"U","NORAD_CAT_ID":63217,"ELEMENT_SET_NO":999,"REV_AT_EPOCH":5485,"BSTAR":0.000706,"MEAN_MOTION_DOT":0.00020683,"MEAN_MOTION_DDOT":0},{"OBJECT_NAME":"STARLINK-34511","OBJECT_ID":"2025-176S","EPOCH":"2026-03-09T22:39:07.366464","MEAN_MOTION":15.30194055,"ECCENTRICITY":0.00011155,"INCLINATION":53.1608,"RA_OF_ASC_NODE":151.9536,"ARG_OF_PERICENTER":87.1163,"MEAN_ANOMALY":272.9965,"EPHEMERIS_TYPE":0,"CLASSIFICATION_TYPE":"U","NORAD_CAT_ID":65214,"ELEMENT_SET_NO":999,"REV_AT_EPOCH":3309,"BSTAR":0.00088767553,"MEAN_MOTION_DOT":0.00026018,"MEAN_MOTION_DDOT":0}]
